NORAD_CAT_ID,OBJECT_NAME,OBJECT_TYPE,EPOCH,MEAN_MOTION,ECCENTRICITY,INCLINATION,RA_OF_ASC_NODE,ARG_OF_PERICENTER,MEAN_ANOMALY,BSTAR,MEAN_MOTION_DOT,MEAN_MOTION_DDOT,TLE_LINE0,TLE_LINE1,TLE_LINE2,SEMIMAJOR_AXIS,PERIOD,APOGEE,PERIGEE,DECAYED
53265.0,STARLINK-4097,PAYLOAD,2022-12-26 23:37:40,15.08846824,0.0001995,53.2192,40.6302,42.6215,317.4932,0.00017597,2.514e-05,0.0,0 STARLINK-4097,1 53265U 22086Z   22360.98450079  .00002514  00000-0  17597-3 0  9998,2 53265  53.2192  40.6302 0001995  42.6215 317.4932 15.08846824 24454,6917.86,95.437,541.105,538.344,0.0
53265.0,STARLINK-4097,PAYLOAD,2022-12-27 12:20:45,15.08862882,0.0002121,53.2191,38.2521,37.4545,322.6595,-9.4826e-05,-1.798e-05,0.0,0 STARLINK-4097,1 53265U 22086Z   22361.51441741 -.00001798  00000-0 -94826-4 0  9990,2 53265  53.2191  38.2521 0002121  37.4545 322.6595 15.08862882 24713,6917.81,95.436,541.143,538.2080000000002,0.0
53265.0,STARLINK-4097,PAYLOAD,2022-12-28 12:11:32,15.08840815,0.0002066999999999,53.2192,33.7901,45.9904,314.1259,0.00013593,1.876e-05,0.0,0 STARLINK-4097,1 53265U 22086Z   22362.50802017  .00001876  00000-0  13593-3 0  9993,2 53265  53.2192  33.7901 0002067  45.9904 314.1259 15.08840815 24689,6917.878000000002,95.438,541.173,538.313,0.0
53265.0,STARLINK-4097,PAYLOAD,2022-12-29 00:54:39,15.08833305,0.0001943,53.2193,31.4121,41.0996,319.0142,-0.00011741,-2.156e-05,0.0,0 STARLINK-4097,1 53265U 22086Z   22363.03795203 -.00002156  00000-0 -11741-3 0  9997,2 53265  53.2193  31.4121 0001943  41.0996 319.0142 15.08833305 24769,6917.901,95.438,541.11,538.422,0.0
53265.0,STARLINK-4097,PAYLOAD,2022-12-29 08:51:35,15.08830961,0.0002246,53.2193,29.9254,45.3579,314.7596,-0.00012282,-2.242e-05,0.0,0 STARLINK-4097,1 53265U 22086Z   22363.36915687 -.00002242  00000-0 -12282-3 0  9990,2 53265  53.2193  29.9254 0002246  45.3579 314.7596 15.08830961 24994,6917.908,95.438,541.327,538.219,0.0
53265.0,STARLINK-4097,PAYLOAD,2022-12-30 02:20:50,15.08817327,0.0001943999999999,53.2195,26.656,38.896,321.2172,-9.0479e-05,-1.727e-05,0.0,0 STARLINK-4097,1 53265U 22086Z   22364.09781054 -.00001727  00000-0 -90479-4 0  9992,2 53265  53.2195  26.6560 0001944  38.8960 321.2172 15.08817327 24922,6917.95,95.439,541.16,538.47,0.0
53265.0,STARLINK-4097,PAYLOAD,2022-12-30 11:53:08,15.0883204,0.0002263,53.2186,24.8708,41.6288,318.4876,3.3713e-05,2.48e-06,0.0,0 STARLINK-4097,1 53265U 22086Z   22364.49524270  .00000248  00000-0  33713-4 0  9994,2 53265  53.2186  24.8708 0002263  41.6288 318.4876 15.08832040 24980,6917.905,95.438,541.335,538.2040000000002,0.0
53265.0,STARLINK-4097,PAYLOAD,2022-12-31 08:33:07,15.08851804,0.000222,53.2183,21.0051,41.1931,318.9228,0.00038552,5.855e-05,0.0,0 STARLINK-4097,1 53265U 22086Z   22365.35634253  .00005855  00000-0  38552-3 0  9997,2 53265  53.2183  21.0051 0002220  41.1931 318.9228 15.08851804 25111,6917.844,95.437,541.245,538.174,0.0
53265.0,STARLINK-4097,PAYLOAD,2022-12-31 18:05:27,15.08840903,0.0002258,53.2183,19.2209,40.6165,319.4996,0.00026587,3.946e-05,0.0,0 STARLINK-4097,1 53265U 22086Z   22365.75379262  .00003946  00000-0  26587-3 0  9991,2 53265  53.2183  19.2209 0002258  40.6165 319.4996 15.08840903 25171,6917.878000000002,95.437,541.305,538.181,0.0
53265.0,STARLINK-4097,PAYLOAD,2023-01-01 02:02:24,15.08832524,0.0002065,53.2193,17.7347,41.9033,318.2117,0.00012283,1.667e-05,0.0,0 STARLINK-4097,1 53265U 22086Z   23001.08500348  .00001667  00000-0  12283-3 0  9992,2 53265  53.2193  17.7347 0002065  41.9033 318.2117 15.08832524 25220,6917.903,95.438,541.197,538.34,0.0
53265.0,STARLINK-4097,PAYLOAD,2023-01-01 08:23:57,15.08827735,0.0002292,53.22,16.5443,47.1244,312.994,-4.825e-06,-3.65e-06,0.0,0 STARLINK-4097,1 53265U 22086Z   23001.34997081 -.00000365  00000-0 -48250-5 0  9996,2 53265  53.2200  16.5443 0002292  47.1244 312.9940 15.08827735 25264,6917.918000000002,95.438,541.368,538.197,0.0
53265.0,STARLINK-4097,PAYLOAD,2023-01-01 17:56:16,15.088262300000002,0.0002311999999999,53.2195,14.7613,41.7461,318.3707,-9.6903e-05,-1.83e-05,0.0,0 STARLINK-4097,1 53265U 22086Z   23001.74741756 -.00001830  00000-0 -96903-4 0  9991,2 53265  53.2195  14.7613 0002312  41.7461 318.3707 15.08826230 25507,6917.922,95.438,541.387,538.188,0.0
53265.0,STARLINK-4097,PAYLOAD,2023-01-02 06:39:21,15.08844063,0.0002203,53.2191,12.3817,43.4226,316.694,-0.0001216,-2.223e-05,0.0,0 STARLINK-4097,1 53265U 22086Z   23002.27732735 -.00002223  00000-0 -12160-3 0  9996,2 53265  53.2191  12.3817 0002203  43.4226 316.6940 15.08844063 25403,6917.868,95.437,541.257,538.2090000000002,0.0
53265.0,STARLINK-4097,PAYLOAD,2023-01-02 08:14:44,15.088441199999998,0.0002238,53.2194,12.0847,44.2192,315.8979,-0.00010387,-1.941e-05,0.0,0 STARLINK-4097,1 53265U 22086Z   23002.34356678 -.00001941  00000-0 -10387-3 0  9997,2 53265  53.2194  12.0847 0002238  44.2192 315.8979 15.08844120 25592,6917.868,95.437,541.281,538.185,0.0
53265.0,STARLINK-4097,PAYLOAD,2023-01-02 17:47:02,15.088575400000002,0.0002204,53.2197,10.3008,48.1983,311.9198,-0.00011193,-2.07e-05,0.0,0 STARLINK-4097,1 53265U 22086Z   23002.74099622 -.00002070  00000-0 -11193-3 0  9994,2 53265  53.2197  10.3008 0002204  48.1983 311.9198 15.08857540 25476,6917.8269999999975,95.436,541.216,538.1669999999998,0.0
53265.0,STARLINK-4097,PAYLOAD,2023-01-03 00:08:35,15.08838693,0.0002088,53.22,9.1115,40.3995,319.7152,0.00011049,1.471e-05,0.0,0 STARLINK-4097,1 53265U 22086Z   23003.00596245  .00001471  00000-0  11049-3 0  9999,2 53265  53.2200   9.1115 0002088  40.3995 319.7152 15.08838693 25512,6917.884,95.438,541.194,538.305,0.0
53265.0,STARLINK-4097,PAYLOAD,2023-01-03 09:40:54,15.08838242,0.0002177999999999,53.2197,7.3275,39.9136,320.2016,0.00016381,2.32e-05,0.0,0 STARLINK-4097,1 53265U 22086Z   23003.40340407  .00002320  00000-0  16381-3 0  9998,2 53265  53.2197   7.3275 0002178  39.9136 320.2016 15.08838242 25757,6917.886,95.438,541.257,538.244,0.0
53265.0,STARLINK-4097,PAYLOAD,2023-01-04 06:20:54,15.08843768,0.0002095,53.2183,3.4607,40.7087,319.4061,0.00019872,2.876e-05,0.0,0 STARLINK-4097,1 53265U 22086Z   23004.26452162  .00002876  00000-0  19872-3 0  9999,2 53265  53.2183   3.4607 0002095  40.7087 319.4061 15.08843768 25705,6917.869000000002,95.437,541.183,538.285,0.0
53265.0,STARLINK-4097,PAYLOAD,2023-01-05 06:11:42,15.08833546,0.0002063,53.2186,358.9996,45.4591,314.6569,4.1308e-06,-2.22e-06,0.0,0 STARLINK-4097,1 53265U 22086Z   23005.25813471 -.00000222  00000-0  41308-5 0  9998,2 53265  53.2186 358.9996 0002063  45.4591 314.6569 15.08833546 25853,6917.9,95.438,541.192,538.3380000000002,0.0
53265.0,STARLINK-4097,PAYLOAD,2023-01-05 09:22:29,15.08834751,0.0002123,53.2191,358.4052,45.5533,314.5633,-1.6441e-05,-5.5e-06,0.0,0 STARLINK-4097,1 53265U 22086Z   23005.39061503 -.00000550  00000-0 -16441-4 0  9998,2 53265  53.2191 358.4052 0002123  45.5533 314.5633 15.08834751 26054,6917.896,95.438,541.23,538.293,0.0
53265.0,STARLINK-4097,PAYLOAD,2023-01-06 07:37:52,15.08839987,0.000218,53.2193,354.2445,51.7427,308.3761,-3.2467e-05,-8.05e-06,0.0,0 STARLINK-4097,1 53265U 22086Z   23006.31797404 -.00000805  00000-0 -32467-4 0  9996,2 53265  53.2193 354.2445 0002180  51.7427 308.3761 15.08839987 26015,6917.88,95.438,541.254,538.237,0.0
53265.0,STARLINK-4097,PAYLOAD,2023-01-06 23:31:45,15.088277599999998,0.0002093,53.2193,351.2694,54.3643,305.7544,4.0513e-05,3.56e-06,0.0,0 STARLINK-4097,1 53265U 22086Z   23006.98038576  .00000356  00000-0  40513-4 0  9997,2 53265  53.2193 351.2694 0002093  54.3643 305.7544 15.08827760 26117,6917.9180000000015,95.438,541.231,538.335,0.0
53265.0,STARLINK-4097,PAYLOAD,2023-01-07 05:53:17,15.08838371,0.0001915,53.2198,350.0814,52.6549,307.4618,9.3396e-05,1.199e-05,0.0,0 STARLINK-4097,1 53265U 22086Z   23007.24533950  .00001199  00000-0  93396-4 0  9996,2 53265  53.2198 350.0814 0001915  52.6549 307.4618 15.08838371 26156,6917.885,95.438,541.075,538.4259999999998,0.0
53265.0,STARLINK-4097,PAYLOAD,2023-01-07 15:25:36,15.08842008,0.0001846,53.2192,348.298,56.7662,303.3507,7.614899999999999e-05,9.24e-06,0.0,0 STARLINK-4097,1 53265U 22086Z   23007.64277830  .00000924  00000-0  76149-4 0  9994,2 53265  53.2192 348.2980 0001846  56.7662 303.3507 15.08842008 26397,6917.874,95.437,541.016,538.462,0.0
53265.0,STARLINK-4097,PAYLOAD,2023-01-08 07:19:27,15.08851114,0.0001817,53.2171,345.3256,63.3577,296.7601,0.00020779,3.021e-05,0.0,0 STARLINK-4097,1 53265U 22086Z   23008.30517413  .00003021  00000-0  20779-3 0  9990,2 53265  53.2171 345.3256 0001817  63.3577 296.7601 15.08851114 26315,6917.846,95.437,540.9680000000002,538.4540000000002,0.0
53265.0,STARLINK-4097,PAYLOAD,2023-01-08 15:16:23,15.08839879,0.0001786,53.2182,343.8347,66.0182,294.0997,-2.3427e-05,-6.61e-06,0.0,0 STARLINK-4097,1 53265U 22086Z   23008.63637771 -.00000661  00000-0 -23427-4 0  9999,2 53265  53.2182 343.8347 0001786  66.0182 294.0997 15.08839879 26366,6917.880999999999,95.438,540.981,538.51,0.0
53265.0,STARLINK-4097,PAYLOAD,2023-01-09 07:10:14,15.088442,0.0001803,53.2194,340.8625,68.2801,291.8383,8.3128e-05,1.035e-05,0.0,0 STARLINK-4097,1 53265U 22086Z   23009.29877901  .00001035  00000-0  83128-4 0  9991,2 53265  53.2194 340.8625 0001803  68.2801 291.8383 15.08844200 26646,6917.868,95.437,540.98,538.485,0.0
53265.0,STARLINK-4097,PAYLOAD,2023-01-09 15:07:10,15.08842028,0.0001812,53.2197,339.3767,69.5323,290.5864,6.1806e-05,6.96e-06,0.0,0 STARLINK-4097,1 53265U 22086Z   23009.62998079  .00000696  00000-0  61806-4 0  9999,2 53265  53.2197 339.3767 0001812  69.5323 290.5864 15.08842028 26693,6917.874,95.437,540.993,538.486,0.0
53265.0,STARLINK-4097,PAYLOAD,2023-01-10 05:25:38,15.08841921,0.0001635,53.2189,336.6995,77.1355,282.9819,0.00011055,1.472e-05,0.0,0 STARLINK-4097,1 53265U 22086Z   23010.22614031  .00001472  00000-0  11055-3 0  9993,2 53265  53.2189 336.6995 0001635  77.1355 282.9819 15.08841921 26607,6917.875,95.437,540.871,538.6080000000002,0.0
